     2.100          NAVIGATION                              RINEX VERSION / TYPE
fic2rin                                 06/01/2014 00:19:44 PGM / RUN BY / DATE
                                                            END OF HEADER
28 14  6  1  0  0  0.0  .358975026757D-03  .272848410532D-11  .000000000000D+00
     .470000000000D+02 -.780937500000D+02  .404409702430D-08 -.206978407703D+01
    -.372901558876D-05  .191385778598D-01  .256299972534D-05  .515367395973D+04
     .000000000000D+00  .225380063057D-06  .242932909165D+01  .130385160446D-06
     .986777933433D+00  .335875000000D+03 -.171454845042D+01 -.779711049523D-08
     .150006248362D-10  .100000000000D+01  .179500000000D+04  .000000000000D+00
     .240000000000D+01  .000000000000D+00 -.107102096081D-07  .470000000000D+02
     .597606000000D+06  .400000000000D+01
29 14  6  1  0  0  0.0  .536517705768D-03  .272848410532D-11  .000000000000D+00
     .540000000000D+02 -.878437500000D+02  .428196407528D-08 -.177375108614D+00
    -.448711216450D-05  .155321543571D-02  .988505780697D-05  .515370478439D+04
     .000000000000D+00  .130385160446D-07 -.281914756184D+01 -.372529029846D-08
     .969776067752D+00  .196250000000D+03 -.850086336685D+00 -.782568311397D-08
     .123933733766D-09  .100000000000D+01  .179500000000D+04  .000000000000D+00
     .240000000000D+01  .000000000000D+00 -.977888703346D-08  .540000000000D+02
     .597606000000D+06  .400000000000D+01
30 14  6  1  0  0  0.0 -.191950239241D-04 -.602540239925D-11  .000000000000D+00
     .430000000000D+02  .962187500000D+02  .450804492102D-08  .866970642270D+00
     .501424074173D-05  .736712245271D-03  .390410423279D-05  .515369968224D+04
     .000000000000D+00  .745058059692D-07  .139591520385D+01  .167638063431D-07
     .958784352302D+00  .303812500000D+03  .272899694536D+01 -.825784397235D-08
     .354657630057D-09  .100000000000D+01  .179500000000D+04  .000000000000D+00
     .240000000000D+01  .000000000000D+00  .325962901115D-08  .430000000000D+02
     .597606000000D+06  .400000000000D+01
31 14  6  1  0  0  0.0  .334150157869D-03 -.113686837722D-12  .000000000000D+00
     .530000000000D+02  .881875000000D+02  .410338520818D-08  .508846906693D+00
     .470504164696D-05  .796791131143D-02  .482983887196D-05  .515355950928D+04
     .000000000000D+00  .298023223877D-07  .134765180578D+01 -.152736902237D-06
     .978167073271D+00  .291718750000D+03 -.636145587754D+00 -.811819529828D-08
     .350014579512D-09  .100000000000D+01  .179500000000D+04  .000000000000D+00
     .240000000000D+01  .000000000000D+00 -.130385160446D-07  .530000000000D+02
     .597606000000D+06  .400000000000D+01
32 14  6  1  0  0  0.0 -.416762195528D-03  .829913915368D-11  .000000000000D+00
     .760000000000D+02 -.125000000000D+02  .502270921600D-08  .117424833543D+01
    -.620260834694D-06  .113921200391D-01  .594370067120D-05  .515372566605D+04
     .000000000000D+00  .949949026108D-07 -.691618336817D+00  .206753611565D-06
     .947695294284D+00  .255593750000D+03 -.152683677374D+00 -.822569977627D-08
    -.535022285826D-09  .100000000000D+01  .179500000000D+04  .000000000000D+00
     .240000000000D+01  .000000000000D+00 -.325962901115D-08  .760000000000D+02
     .597606000000D+06  .400000000000D+01
 1 14  5 31 23 59 44.0  .139796175063D-04  .113686837722D-11  .000000000000D+00
     .200000000000D+01  .228437500000D+02  .478305637635D-08  .124916053010D+01
     .137276947498D-05  .309492566157D-02  .776723027229D-05  .515367650414D+04
     .604784000000D+06  .298023223877D-07 -.169850221842D+01  .596046447754D-07
     .960526934968D+00  .227437500000D+03  .308560310970D+00 -.809176562595D-08
     .317870383435D-09  .100000000000D+01  .179400000000D+04  .000000000000D+00
     .240000000000D+01  .000000000000D+00  .558793544769D-08  .200000000000D+01
     .598656000000D+06  .400000000000D+01
21 14  5 31 23 59 44.0 -.364375766367D-03 -.216004991671D-11  .000000000000D+00
     .000000000000D+00  .175000000000D+02  .552415867481D-08 -.357871888378D+00
     .106170773506D-05  .215003215708D-01  .779703259468D-05  .515374603081D+04
     .604784000000D+06 -.135973095894D-06 -.171092365102D+01  .204890966415D-06
     .932014667455D+00  .215375000000D+03 -.202097641931D+01 -.880000941286D-08
     .336085427879D-09  .100000000000D+01  .179400000000D+04  .000000000000D+00
     .240000000000D+01  .000000000000D+00 -.111758708954D-07  .000000000000D+00
     .600186000000D+06  .400000000000D+01
 8 14  5 31 23 59 44.0  .139200128615D-04  .227373675443D-12  .000000000000D+00
     .180000000000D+02  .844375000000D+02  .381015870840D-08  .131256117310D+00
     .455044209957D-05  .137235739967D-01  .406615436077D-05  .515335659981D+04
     .604784000000D+06  .212341547012D-06  .156147001631D+01  .160187482834D-06
     .996464714252D+00  .320375000000D+03 -.277430508945D+01 -.807212195057D-08
     .354657630057D-09  .100000000000D+01  .179400000000D+04  .000000000000D+00
     .240000000000D+01  .000000000000D+00 -.419095158577D-08  .180000000000D+02
     .603816000000D+06  .400000000000D+01
